[{"OBJECT_NAME":"EAGLET-I","OBJECT_ID":"2018-099AJ","EPOCH":"2026-03-09T16:28:56.807904","MEAN_MOTION":15.12108145,"ECCENTRICITY":0.00104863,"INCLINATION":97.4369,"RA_OF_ASC_NODE":120.9821,"ARG_OF_PERICENTER":336.8524,"MEAN_ANOMALY":23.2233,"EPHEMERIS_TYPE":0,"CLASSIFICATION_TYPE":"U","NORAD_CAT_ID":43790,"ELEMENT_SET_NO":999,"REV_AT_EPOCH":39729,"BSTAR":0.0003526184,"MEAN_MOTION_DOT":6.017e-5,"MEAN_MOTION_DDOT":0},{"OBJECT_NAME":"STARLINK-5003","OBJECT_ID":"2022-119V","EPOCH":"2026-03-09T23:12:51.000480","MEAN_MOTION":15.08828143,"ECCENTRICITY":0.00013214,"INCLINATION":53.218,"RA_OF_ASC_NODE":313.0955,"ARG_OF_PERICENTER":93.5218,"MEAN_ANOMALY":266.5925,"EPHEMERIS_TYPE":0,"CLASSIFICATION_TYPE":"U","NORAD_CAT_ID":53905,"ELEMENT_SET_NO":999,"REV_AT_EPOCH":19186,"BSTAR":4.3406634e-5,"MEAN_MOTION_DOT":4.03e-6,"MEAN_MOTION_DDOT":0}]
